COMMENT,ORIGINATOR,NORAD_CAT_ID,OBJECT_NAME,OBJECT_TYPE,CLASSIFICATION_TYPE,INTLDES,EPOCH,EPOCH_MICROSECONDS,MEAN_MOTION,ECCENTRICITY,INCLINATION,RA_OF_ASC_NODE,ARG_OF_PERICENTER,MEAN_ANOMALY,EPHEMERIS_TYPE,ELEMENT_SET_NO,REV_AT_EPOCH,BSTAR,MEAN_MOTION_DOT,MEAN_MOTION_DDOT,FILE,TLE_LINE0,TLE_LINE1,TLE_LINE2,OBJECT_ID,OBJECT_NUMBER,SEMIMAJOR_AXIS,PERIOD,APOGEE,PERIGEE,DECAYED,date
GENERATED VIA SPACETRACK.ORG API,18 SPCS,48893,SPACEBEE-106,PAYLOAD,U,21059Q,2023/1/1 2:21,606944,15.20351391,0.0008799,97.5775,135.753,134.0267,226.1694,0,999,8391,0.00082222,0.00017867,0,3728262,0 SPACEBEE-106,1 48893U 21059Q   23001.09831721  .00017867  00000-0  82222-3 0  9994,2 48893  97.5775 135.7530 0008799 134.0267 226.1694 15.20351391 83915,2021-059Q,48893,6882.917,94.715,510.838,498.726,0,2023/1/1
GENERATED VIA SPACETRACK.ORG API,18 SPCS,48893,SPACEBEE-106,PAYLOAD,U,21059Q,2023/1/1 8:40,590624,15.20361995,0.00088,97.5775,136.0175,133.0116,227.1858,0,999,8395,0.00082969,0.00018036,0,3728759,0 SPACEBEE-106,1 48893U 21059Q   23001.36158091  .00018036  00000-0  82969-3 0  9993,2 48893  97.5775 136.0175 0008800 133.0116 227.1858 15.20361995 83957,2021-059Q,48893,6882.885,94.714,510.807,498.693,0,2023/1/2
GENERATED VIA SPACETRACK.ORG API,18 SPCS,48893,SPACEBEE-106,PAYLOAD,U,21059Q,2023/1/2 3:37,793440,15.20388956,0.0008876,97.5774,136.8118,130.6918,229.5089,0,999,8407,0.00081794,0.00017794,0,3729210,0 SPACEBEE-106,1 48893U 21059Q   23002.15136335  .00017794  00000-0  81794-3 0  9993,2 48893  97.5774 136.8118 0008876 130.6918 229.5089 15.20388956 84079,2021-059Q,48893,6882.803,94.713,510.778,498.559,0,2023/1/3
GENERATED VIA SPACETRACK.ORG API,18 SPCS,48893,SPACEBEE-106,PAYLOAD,U,21059Q,2023/1/2 14:41,280352,15.20400921,0.0008892,97.5772,137.275,129.3572,230.8452,0,999,8414,0.00068551,0.00014901,0,3729583,0 SPACEBEE-106,1 48893U 21059Q   23002.61206343  .00014901  00000-0  68551-3 0  9994,2 48893  97.5772 137.2750 0008892 129.3572 230.8452 15.20400921 84147,2021-059Q,48893,6882.767,94.712,510.753,498.512,0,2023/1/4
GENERATED VIA SPACETRACK.ORG API,18 SPCS,48893,SPACEBEE-106,PAYLOAD,U,21059Q,2023/1/3 8:03,428160,15.20425993,0.0008875,97.5772,138.0027,127.1212,233.0835,0,999,8425,0.00074635,0.00016244,0,3730462,0 SPACEBEE-106,1 48893U 21059Q   23003.33601190  .00016244  00000-0  74635-3 0  9995,2 48893  97.5772 138.0027 0008875 127.1212 233.0835 15.20425993 84259,2021-059Q,48893,6882.692,94.71,510.665,498.448,0,2023/1/5
GENERATED VIA SPACETRACK.ORG API,18 SPCS,48893,SPACEBEE-106,PAYLOAD,U,21059Q,2023/1/3 8:03,428160,15.20425993,0.0008875,97.5772,138.0027,127.1212,233.0835,0,999,8425,0.00074635,0.00016244,0,3730926,0 SPACEBEE-106,1 48893U 21059Q   23003.33601190  .00016244  00000-0  74635-3 0  9995,2 48893  97.5772 138.0027 0008875 127.1212 233.0835 15.20425993 84259,2021-059Q,48893,6882.692,94.71,510.665,498.448,0,2023/1/6
GENERATED VIA SPACETRACK.ORG API,18 SPCS,48893,SPACEBEE-106,PAYLOAD,U,21059Q,2023/1/4 14:04,604352,15.20472791,0.0008834,97.5774,139.2595,123.1597,237.0486,0,999,8444,0.0010168,0.00022204,0,3731823,0 SPACEBEE-106,1 48893U 21059Q   23004.58644218  .00022204  00000-0  10168-2 0  9994,2 48893  97.5774 139.2595 0008834 123.1597 237.0486 15.20472791 84446,2021-059Q,48893,6882.55,94.707,510.496,498.335,0,2023/1/7
GENERATED VIA SPACETRACK.ORG API,18 SPCS,48893,SPACEBEE-106,PAYLOAD,U,21059Q,2023/1/4 14:04,604352,15.20472791,0.0008834,97.5774,139.2595,123.1597,237.0486,0,999,8444,0.0010168,0.00022204,0,3731985,0 SPACEBEE-106,1 48893U 21059Q   23004.58644218  .00022204  00000-0  10168-2 0  9994,2 48893  97.5774 139.2595 0008834 123.1597 237.0486 15.20472791 84446,2021-059Q,48893,6882.55,94.707,510.496,498.335,0,2023/1/8
GENERATED VIA SPACETRACK.ORG API,18 SPCS,48893,SPACEBEE-106,PAYLOAD,U,21059Q,2023/1/5 7:26,749760,15.20499334,0.0008909,97.5777,139.9873,120.715,239.4963,0,999,8455,0.0008388,0.00018309,0,3732939,0 SPACEBEE-106,1 48893U 21059Q   23005.31035590  .00018309  00000-0  83880-3 0  9996,2 48893  97.5777 139.9873 0008909 120.7150 239.4963 15.20499334 84556,2021-059Q,48893,6882.47,94.706,510.467,498.204,0,2023/1/9
GENERATED VIA SPACETRACK.ORG API,18 SPCS,48893,SPACEBEE-106,PAYLOAD,U,21059Q,2023/1/5 15:20,390688,15.20513649,0.0008935,97.5777,140.3181,119.5289,240.6837,0,999,8460,0.00085993,0.00018782,0,3732963,0 SPACEBEE-106,1 48893U 21059Q   23005.63940267  .00018782  00000-0  85993-3 0  9999,2 48893  97.5777 140.3181 0008935 119.5289 240.6837 15.20513649 84608,2021-059Q,48893,6882.427,94.705,510.442,498.143,0,2023/1/10
GENERATED VIA SPACETRACK.ORG API,18 SPCS,48893,SPACEBEE-106,PAYLOAD,U,21059Q,2023/1/5 15:20,390688,15.20513649,0.0008935,97.5777,140.3181,119.5289,240.6837,0,999,8460,0.00085993,0.00018782,0,3733163,0 SPACEBEE-106,1 48893U 21059Q   23005.63940267  .00018782  00000-0  85993-3 0  9999,2 48893  97.5777 140.3181 0008935 119.5289 240.6837 15.20513649 84608,2021-059Q,48893,6882.427,94.705,510.442,498.143,0,2023/1/11
GENERATED VIA SPACETRACK.ORG API,18 SPCS,48893,SPACEBEE-106,PAYLOAD,U,21059Q,2023/1/6 7:08,756704,15.20547337,0.0008973,97.5781,140.9798,117.2628,242.9522,0,999,8470,0.00099138,0.00021693,0,3733857,0 SPACEBEE-106,1 48893U 21059Q   23006.29748561  .00021693  00000-0  99138-3 0  9996,2 48893  97.5781 140.9798 0008973 117.2628 242.9522 15.20547337 84705,2021-059Q,48893,6882.326,94.703,510.366,498.015,0,2023/1/12
GENERATED VIA SPACETRACK.ORG API,18 SPCS,48893,SPACEBEE-106,PAYLOAD,U,21059Q,2023/1/6 7:08,756704,15.20547337,0.0008973,97.5781,140.9798,117.2628,242.9522,0,999,8470,0.00099138,0.00021693,0,3734255,0 SPACEBEE-106,1 48893U 21059Q   23006.29748561  .00021693  00000-0  99138-3 0  9996,2 48893  97.5781 140.9798 0008973 117.2628 242.9522 15.20547337 84705,2021-059Q,48893,6882.326,94.703,510.366,498.015,0,2023/1/13
GENERATED VIA SPACETRACK.ORG API,18 SPCS,48893,SPACEBEE-106,PAYLOAD,U,21059Q,2023/1/7 2:05,485408,15.20577609,0.0008982,97.5782,141.7739,114.7287,245.4883,0,999,8482,0.0008535,0.00018675,0,3735161,0 SPACEBEE-106,1 48893U 21059Q   23007.08716997  .00018675  00000-0  85350-3 0  9999,2 48893  97.5782 141.7739 0008982 114.7287 245.4883 15.20577609 84829,2021-059Q,48893,6882.234,94.701,510.281,497.918,0,2023/1/14
GENERATED VIA SPACETRACK.ORG API,18 SPCS,48893,SPACEBEE-106,PAYLOAD,U,21059Q,2023/1/7 19:27,250336,15.20607813,0.000891,97.5782,142.5015,112.6878,247.53,0,999,8493,0.00091411,0.00020027,0,3735266,0 SPACEBEE-106,1 48893U 21059Q   23007.81103299  .00020027  00000-0  91411-3 0  9994,2 48893  97.5782 142.5015 0008910 112.6878 247.5300 15.20607813 84939,2021-059Q,48893,6882.143,94.699,510.14,497.876,0,2023/1/15
GENERATED VIA SPACETRACK.ORG API,18 SPCS,48893,SPACEBEE-106,PAYLOAD,U,21059Q,2023/1/7 19:27,250336,15.20607813,0.000891,97.5782,142.5015,112.6878,247.53,0,999,8493,0.00091411,0.00020027,0,3735488,0 SPACEBEE-106,1 48893U 21059Q   23007.81103299  .00020027  00000-0  91411-3 0  9994,2 48893  97.5782 142.5015 0008910 112.6878 247.5300 15.20607813 84939,2021-059Q,48893,6882.143,94.699,510.14,497.876,0,2023/1/16
GENERATED VIA SPACETRACK.ORG API,18 SPCS,48893,SPACEBEE-106,PAYLOAD,U,21059Q,2023/1/8 19:09,641280,15.20645474,0.0008896,97.5784,143.4939,109.5316,250.688,0,999,8508,0.00090311,0.00019807,0,3736460,0 SPACEBEE-106,1 48893U 21059Q   23008.79809770  .00019807  00000-0  90311-3 0  9991,2 48893  97.5784 143.4939 0008896 109.5316 250.6880 15.20645474 85081,2021-059Q,48893,6882.029,94.697,510.017,497.772,0,2023/1/17
GENERATED VIA SPACETRACK.ORG API,18 SPCS,48893,SPACEBEE-106,PAYLOAD,U,21059Q,2023/1/9 7:47,655872,15.20667386,0.0008871,97.5785,144.0235,107.387,252.8335,0,999,8516,0.00093486,0.0002052,0,3737069,0 SPACEBEE-106,1 48893U 21059Q   23009.32452148  .00020520  00000-0  93486-3 0  9994,2 48893  97.5785 144.0235 0008871 107.3870 252.8335 15.20667386 85166,2021-059Q,48893,6881.963,94.695,509.933,497.723,0,2023/1/18
GENERATED VIA SPACETRACK.ORG API,18 SPCS,48893,SPACEBEE-106,PAYLOAD,U,21059Q,2023/1/9 7:47,655872,15.20667386,0.0008871,97.5785,144.0235,107.387,252.8335,0,999,8516,0.00093486,0.0002052,0,3737263,0 SPACEBEE-106,1 48893U 21059Q   23009.32452148  .00020520  00000-0  93486-3 0  9994,2 48893  97.5785 144.0235 0008871 107.3870 252.8335 15.20667386 85166,2021-059Q,48893,6881.963,94.695,509.933,497.723,0,2023/1/19
GENERATED VIA SPACETRACK.ORG API,18 SPCS,48893,SPACEBEE-106,PAYLOAD,U,21059Q,2023/1/10 7:28,538112,15.20708976,0.0008935,97.5787,145.0159,104.1771,256.0458,0,999,8531,0.00094125,0.00020687,0,3739038,0 SPACEBEE-106,1 48893U 21059Q   23010.31154558  .00020687  00000-0  94125-3 0  9994,2 48893  97.5787 145.0159 0008935 104.1771 256.0458 15.20708976 85310,2021-059Q,48893,6881.838,94.693,509.852,497.554,0,2023/1/20
GENERATED VIA SPACETRACK.ORG API,18 SPCS,48893,SPACEBEE-106,PAYLOAD,U,21059Q,2023/1/10 20:06,613888,15.20734953,0.0008963,97.5785,145.5452,102.2444,257.9795,0,999,8539,0.0010653,0.00023449,0,3739267,0 SPACEBEE-106,1 48893U 21059Q   23010.83794692  .00023449  00000-0  10653-2 0  9992,2 48893  97.5785 145.5452 0008963 102.2444 257.9795 15.20734953 85392,2021-059Q,48893,6881.759,94.691,509.793,497.456,0,2023/1/21
GENERATED VIA SPACETRACK.ORG API,18 SPCS,48893,SPACEBEE-106,PAYLOAD,U,21059Q,2023/1/10 20:06,613888,15.20734953,0.0008963,97.5785,145.5452,102.2444,257.9795,0,999,8539,0.0010653,0.00023449,0,3739390,0 SPACEBEE-106,1 48893U 21059Q   23010.83794692  .00023449  00000-0  10653-2 0  9992,2 48893  97.5785 145.5452 0008963 102.2444 257.9795 15.20734953 85392,2021-059Q,48893,6881.759,94.691,509.793,497.456,0,2023/1/22
GENERATED VIA SPACETRACK.ORG API,18 SPCS,48893,SPACEBEE-106,PAYLOAD,U,21059Q,2023/1/11 15:03,809728,15.20772315,0.0009005,97.5787,146.339,99.8577,260.3675,0,999,8551,0.0010935,0.00024101,0,3740054,0 SPACEBEE-106,1 48893U 21059Q   23011.62753252  .00024101  00000-0  10935-2 0  9996,2 48893  97.5787 146.3390 0009005  99.8577 260.3675 15.20772315 85513,2021-059Q,48893,6881.647,94.689,509.709,497.315,0,2023/1/23
